ORBCOMM-X               
1 21576U 91050C   24118.92809784  .00001017  00000+0  32010-3 0  9996
2 21576  98.3921 186.9572 0003784  21.2359 338.8987 14.42470598722233
ORBCOMM FM01            
1 23545U 95017A   24118.93053634  .00012790  00000+0  17040-2 0  9992
2 23545  69.9695  21.2976 0008647 239.6489 120.3805 14.79761955550865
ORBCOMM FM02            
1 23546U 95017B   24118.88840374  .00014117  00000+0  18977-2 0  9997
2 23546  69.9711  40.8012 0010431 234.4782 125.5395 14.79338331550506
ORBCOMM FM08            
1 25112U 97084A   24118.93026892  .00003713  00000+0  11527-2 0  9995
2 25112  45.0131 196.1709 0008607 300.1266  59.8731 14.42462209381345
ORBCOMM FM10            
1 25113U 97084B   24118.52085154  .00004090  00000+0  12677-2 0  9993
2 25113  45.0138 199.9706 0006844 271.9697  88.0369 14.42375559556431
ORBCOMM FM11            
1 25114U 97084C   24118.53847581  .00003754  00000+0  11697-2 0  9992
2 25114  45.0122 199.9440 0007594 272.6567  87.3414 14.42256439381408
ORBCOMM FM12            
1 25115U 97084D   24118.91358129  .00003610  00000+0  11275-2 0  9993
2 25115  45.0130 197.8463 0006674 274.2508  85.7579 14.42218244381250
ORBCOMM FM09            
1 25116U 97084E   24118.92458089  .00003368  00000+0  10557-2 0  9993
2 25116  45.0138 198.4762 0007881 264.4515  95.5436 14.42184060381460
